     3.04           N: GNSS NAV DATA    M: Mixed            RINEX VERSION / TYPE
RTKCONV 2.4.3 b34                       20231216 061949 UTC PGM / RUN BY / DATE 
format: RTCM 3                                              COMMENT             
log: C:\work\log\STR1347m.rtcm3                             COMMENT             
                                                            END OF HEADER       
E33 2023 12 13 11 50 00  .411662040278D-05  .682121026330D-12  .000000000000D+00
      .119000000000D+03 -.699062500000D+02  .270118394372D-08  .256149640650D+01
     -.327639281750D-05  .308851827867D-03 -.344589352608D-05  .544061187744D+04
      .301800000000D+06  .242143869400D-07 -.125456457875D+01 -.465661287308D-07
      .999712142229D+00  .432687500000D+03 -.210907516591D+01 -.582095675193D-08
     -.113933317209D-09  .258000000000D+03  .229200000000D+04  .000000000000D+00
      .312000000000D+01  .000000000000D+00 -.395812094212D-08  .000000000000D+00
      .302759000000D+06  .000000000000D+00
E33 2023 12 13 11 50 00  .411656219512D-05  .682121026330D-12  .000000000000D+00
      .119000000000D+03 -.699062500000D+02  .270118394372D-08  .256149640650D+01
     -.327639281750D-05  .308851827867D-03 -.344589352608D-05  .544061187744D+04
      .301800000000D+06  .242143869400D-07 -.125456457875D+01 -.465661287308D-07
      .999712142229D+00  .432687500000D+03 -.210907516591D+01 -.582095675193D-08
     -.113933317209D-09  .517000000000D+03  .229200000000D+04  .000000000000D+00
      .312000000000D+01  .000000000000D+00 -.395812094212D-08 -.419095158577D-08
      .302759000000D+06  .000000000000D+00
G07 2023 12 13 14 00 00 -.108638778329D-04 -.966338120634D-11  .000000000000D+00
      .240000000000D+02 -.687500000000D+01  .541022535760D-08 -.323691910496D-01
     -.251457095146D-06  .176877252525D-01  .522658228874D-05  .515367975616D+04
      .309600000000D+06 -.968575477600D-07  .188673042222D+01  .150874257088D-06
      .949785271717D+00  .273375000000D+03 -.216306252355D+01 -.862678791177D-08
     -.316084594764D-09  .100000000000D+01  .229200000000D+04  .000000000000D+00
      .200000000000D+01  .000000000000D+00 -.111758708954D-07  .240000000000D+02
      .302819000000D+06  .400000000000D+01
E04 2023 12 13 11 30 00 -.279083324131D-03 -.878230821399D-11  .000000000000D+00
      .117000000000D+03  .562500000000D+00  .327049337203D-08  .239753442510D+00
     -.204890966415D-07  .930984970182D-04  .967644155025D-05  .544061552429D+04
      .300600000000D+06 -.391155481339D-07  .839244128538D+00 -.242143869400D-07
      .959902795599D+00  .131000000000D+03 -.286697508347D+01 -.537700968832D-08
      .836106255753D-09  .258000000000D+03  .229200000000D+04  .000000000000D+00
      .312000000000D+01  .000000000000D+00 -.232830643654D-08  .000000000000D+00
      .302819000000D+06  .000000000000D+00
E04 2023 12 13 11 30 00 -.279083382338D-03 -.879651906871D-11  .000000000000D+00
      .117000000000D+03  .562500000000D+00  .327049337203D-08  .239753442510D+00
     -.204890966415D-07  .930984970182D-04  .967644155025D-05  .544061552429D+04
      .300600000000D+06 -.391155481339D-07  .839244128538D+00 -.242143869400D-07
      .959902795599D+00  .131000000000D+03 -.286697508347D+01 -.537700968832D-08
      .836106255753D-09  .517000000000D+03  .229200000000D+04  .000000000000D+00
      .312000000000D+01  .000000000000D+00 -.232830643654D-08 -.256113708019D-08
      .302819000000D+06  .000000000000D+00
G09 2023 12 13 14 00 00  .255629420280D-04  .117097442853D-10  .000000000000D+00
      .460000000000D+02 -.209375000000D+01  .470162441296D-08 -.299747386710D+01
     -.689178705215D-07  .295083608944D-02  .953860580921D-05  .515375741959D+04
      .309600000000D+06  .931322574615D-08  .814320568772D+00  .353902578354D-07
      .957258660408D+00  .194687500000D+03  .200043287577D+01 -.784175521201D-08
      .742888087128D-09  .100000000000D+01  .229200000000D+04  .000000000000D+00
      .200000000000D+01  .000000000000D+00  .139698386192D-08  .460000000000D+02
      .302879000000D+06  .400000000000D+01
E10 2023 12 13 11 50 00 -.586022157222D-03 -.291322521662D-11  .000000000000D+00
      .119000000000D+03 -.871562500000D+02  .275475760385D-08  .216982391148D+01
     -.395253300667D-05  .150663894601D-03 -.353902578354D-05  .544060165215D+04
      .301800000000D+06 -.484287738800D-07 -.125638104755D+01 -.707805156708D-07
      .999554152928D+00  .431718750000D+03 -.291909934324D+01 -.587131599245D-08
     -.101789954246D-09  .258000000000D+03  .229200000000D+04  .000000000000D+00
      .312000000000D+01  .000000000000D+00 -.232830643654D-09  .000000000000D+00
      .302879000000D+06  .000000000000D+00
E10 2023 12 13 11 50 00 -.586021051276D-03 -.291322521662D-11  .000000000000D+00
      .119000000000D+03 -.871562500000D+02  .275475760385D-08  .216982391148D+01
     -.395253300667D-05  .150663894601D-03 -.353902578354D-05  .544060165215D+04
      .301800000000D+06 -.484287738800D-07 -.125638104755D+01 -.707805156708D-07
      .999554152928D+00  .431718750000D+03 -.291909934324D+01 -.587131599245D-08
     -.101789954246D-09  .517000000000D+03  .229200000000D+04  .000000000000D+00
      .312000000000D+01  .000000000000D+00 -.232830643654D-09  .465661287308D-09
      .302879000000D+06  .000000000000D+00
G16 2023 12 13 14 00 00 -.404909718782D-03  .716227077646D-11  .000000000000D+00
      .620000000000D+02  .610937500000D+02  .408016995546D-08 -.246850829948D+01
      .306777656078D-05  .137931675417D-01  .116806477308D-04  .515370576096D+04
      .309600000000D+06  .856816768646D-07  .301992699272D+01 -.106170773506D-06
      .963681957725D+00  .154187500000D+03  .806406091262D+00 -.743459539503D-08
     -.491806199988D-09  .100000000000D+01  .229200000000D+04  .000000000000D+00
      .200000000000D+01  .000000000000D+00 -.102445483208D-07  .620000000000D+02
      .302939000000D+06  .400000000000D+01
G26 2023 12 13 14 00 00  .209557358176D-03 -.306954461848D-11  .000000000000D+00
      .140000000000D+02  .300312500000D+02  .492127641949D-08 -.169499074836D+01
      .150129199028D-05  .868926430121D-02  .106152147055D-04  .515379954910D+04
      .309600000000D+06  .130385160446D-07  .285794676939D+01 -.130385160446D-06
      .932596879592D+00  .159468750000D+03  .507779454870D+00 -.792068707127D-08
     -.627883296717D-09  .100000000000D+01  .229200000000D+04  .000000000000D+00
      .200000000000D+01  .000000000000D+00  .698491930962D-08  .140000000000D+02
      .302999000000D+06  .400000000000D+01
E21 2023 12 13 12 00 00 -.568648858462D-03 -.181898940355D-11  .000000000000D+00
      .120000000000D+03  .709375000000D+02  .279154485048D-08  .286795150667D+01
      .334158539772D-05  .190704828128D-03  .125411897898D-04  .544062304878D+04
      .302400000000D+06  .167638063431D-07  .293826420499D+01  .745058059692D-07
      .967900946171D+00  .747187500000D+02  .481642781989D+00 -.515985778593D-08
     -.693957477543D-09  .517000000000D+03  .229200000000D+04  .000000000000D+00
      .312000000000D+01  .000000000000D+00  .279396772385D-08  .302679836750D-08
      .303119000000D+06  .000000000000D+00
E27 2023 12 13 12 00 00 -.223092210945D-03 -.937916411203D-11  .000000000000D+00
      .120000000000D+03  .725000000000D+02  .269689805091D-08 -.219857618972D+01
      .347569584846D-05  .302739092149D-03  .128373503685D-04  .544062247467D+04
      .302400000000D+06 -.122934579849D-06  .293824378412D+01  .186264514923D-07
      .967873768079D+00  .686875000000D+02  .612105653915D-01 -.508235455761D-08
     -.760031658369D-09  .258000000000D+03  .229200000000D+04  .000000000000D+00
      .312000000000D+01  .000000000000D+00  .232830643654D-08  .000000000000D+00
      .303179000000D+06  .000000000000D+00
E27 2023 12 13 12 00 00 -.223091570660D-03 -.936495325732D-11  .000000000000D+00
      .120000000000D+03  .725000000000D+02  .269689805091D-08 -.219857618972D+01
      .347569584846D-05  .302739092149D-03  .128373503685D-04  .544062247467D+04
      .302400000000D+06 -.122934579849D-06  .293824378412D+01  .186264514923D-07
      .967873768079D+00  .686875000000D+02  .612105653915D-01 -.508235455761D-08
     -.760031658369D-09  .517000000000D+03  .229200000000D+04  .000000000000D+00
      .312000000000D+01  .000000000000D+00  .232830643654D-08  .256113708019D-08
      .303179000000D+06  .000000000000D+00
E33 2023 12 13 12 00 00  .411708606407D-05  .682121026330D-12  .000000000000D+00
      .120000000000D+03 -.676562500000D+02  .269082636943D-08  .263594701249D+01
     -.318512320518D-05  .308511895128D-03 -.338256359100D-05  .544061255264D+04
      .302400000000D+06  .298023223877D-07 -.125456808244D+01 -.447034835815D-07
      .999712055917D+00  .431125000000D+03 -.210914033160D+01 -.582274254060D-08
     -.111076055335D-09  .258000000000D+03  .229200000000D+04  .000000000000D+00
      .312000000000D+01  .000000000000D+00 -.395812094212D-08  .000000000000D+00
      .303239000000D+06  .000000000000D+00
E33 2023 12 13 12 00 00  .411696964875D-05  .682121026330D-12  .000000000000D+00
      .120000000000D+03 -.676562500000D+02  .269082636943D-08  .263594701249D+01
     -.318512320518D-05  .308511895128D-03 -.338256359100D-05  .544061255264D+04
      .302400000000D+06  .298023223877D-07 -.125456808244D+01 -.447034835815D-07
      .999712055917D+00  .431125000000D+03 -.210914033160D+01 -.582274254060D-08
     -.111076055335D-09  .517000000000D+03  .229200000000D+04  .000000000000D+00
      .312000000000D+01  .000000000000D+00 -.395812094212D-08 -.419095158577D-08
      .303239000000D+06  .000000000000D+00
